STARLINK-36333          
1 68256U 26054AA  26085.83336806 -.01862625  00000+0 -99269-2 0  9990
2 68256  53.1591 226.5504 0001149  54.1447  96.9845 15.82617631  2707
STARLINK-36745          
1 68257U 26054AB  26085.83336806 -.01948698  00000+0 -10215-1 0  9999
2 68257  53.1592 226.5335 0001234  62.8111  96.1019 15.83104944  2670
STARLINK-36890          
1 68258U 26054AC  26085.83336806 -.01831476  00000+0 -94309-2 0  9992
2 68258  53.1592 226.5261 0001337  57.8589 104.8770 15.83286119  2672
STARLINK-36323          
1 68259U 26054AD  26085.83336806 -.01920695  00000+0 -10152-1 0  9998
2 68259  53.1591 226.5418 0001316  48.7811 106.2465 15.82884088  2709
STARLINK-37056          
1 68260U 26054AE  26085.83336806 -.01948637  00000+0 -10004-1 0  9992
2 68260  53.1592 226.5180 0001352  64.6890 101.8786 15.83538520  2673
STARLINK-37162          
1 68262U 26055A   26085.83336806 -.00924066  28495-3 -18576-2 0  9999
2 68262  53.1591 251.9533 0000628  74.1979 341.4724 15.99007617  2395
STARLINK-37156          
1 68263U 26055B   26085.83336806 -.00926525  28659-3 -18530-2 0  9994
2 68263  53.1591 251.9500 0000712  62.7163 354.7801 15.99098705  2393
STARLINK-37163          
1 68264U 26055C   26085.83336806 -.00928686  28857-3 -18313-2 0  9994
2 68264  53.1589 251.9399 0000685  55.5997   6.4492 15.99348031  2398
STARLINK-37133          
1 68265U 26055D   26085.83336806 -.00931049  28953-3 -18485-2 0  9999
2 68265  53.1590 251.9448 0000570  64.0069 355.8238 15.99228584  2393
STARLINK-37042          
1 68266U 26055E   26085.83336806 -.00922051  28534-3 -18021-2 0  9994
2 68266  53.1590 251.9342 0000672  54.4356  10.5282 15.99503593  2392
STARLINK-37103          
1 68267U 26055F   26085.83336806 -.00925816  28787-3 -17954-2 0  9991
2 68267  53.1591 251.9287 0000708  58.6028   8.8548 15.99640793  2393
STARLINK-36999          
1 68268U 26055G   26085.83336806 -.00929695  29044-3 -17901-2 0  9990
2 68268  53.1591 251.9243 0000695  58.4479  11.2441 15.99767352  2390
STARLINK-36962          
1 68269U 26055H   26085.83336806 -.00927321  28952-3 -17720-2 0  9991
2 68269  53.1591 251.9193 0000705  64.0305   8.0351 15.99899588  2399
STARLINK-37028          
1 68270U 26055J   26085.83336806 -.00939722  29766-3 -17604-2 0  9996
2 68270  53.1590 251.9026 0000641  58.3564  21.5381 16.00248744  2395
STARLINK-37029          
1 68271U 26055K   26085.83336806 -.00942886  29904-3 -17802-2 0  9996
2 68271  53.1590 251.9080 0000680  68.8061   8.6475 16.00112960  2397
STARLINK-36974          
1 68272U 26055L   26085.83336806 -.00941878  29947-3 -17468-2 0  9992
2 68272  53.1590 251.8965 0000566  65.5445  17.4098 16.00423781  2397
