[{"OBJECT_NAME":"STARLINK-36333","OBJECT_ID":"2026-054AA","EPOCH":"2026-03-26T20:00:03.000384","MEAN_MOTION":15.82617631,"ECCENTRICITY":0.0001149,"INCLINATION":53.1591,"RA_OF_ASC_NODE":226.5504,"ARG_OF_PERICENTER":54.1447,"MEAN_ANOMALY":96.9845,"EPHEMERIS_TYPE":0,"CLASSIFICATION_TYPE":"U","NORAD_CAT_ID":68256,"ELEMENT_SET_NO":999,"REV_AT_EPOCH":270,"BSTAR":-0.0099269,"MEAN_MOTION_DOT":-0.01862625,"MEAN_MOTION_DDOT":0},{"OBJECT_NAME":"STARLINK-36745","OBJECT_ID":"2026-054AB","EPOCH":"2026-03-26T20:00:03.000384","MEAN_MOTION":15.83104944,"ECCENTRICITY":0.0001234,"INCLINATION":53.1592,"RA_OF_ASC_NODE":226.5335,"ARG_OF_PERICENTER":62.8111,"MEAN_ANOMALY":96.1019,"EPHEMERIS_TYPE":0,"CLASSIFICATION_TYPE":"U","NORAD_CAT_ID":68257,"ELEMENT_SET_NO":999,"REV_AT_EPOCH":267,"BSTAR":-0.010215,"MEAN_MOTION_DOT":-0.01948698,"MEAN_MOTION_DDOT":0},{"OBJECT_NAME":"STARLINK-36890","OBJECT_ID":"2026-054AC","EPOCH":"2026-03-26T20:00:03.000384","MEAN_MOTION":15.83286119,"ECCENTRICITY":0.0001337,"INCLINATION":53.1592,"RA_OF_ASC_NODE":226.5261,"ARG_OF_PERICENTER":57.8589,"MEAN_ANOMALY":104.877,"EPHEMERIS_TYPE":0,"CLASSIFICATION_TYPE":"U","NORAD_CAT_ID":68258,"ELEMENT_SET_NO":999,"REV_AT_EPOCH":267,"BSTAR":-0.0094309,"MEAN_MOTION_DOT":-0.01831476,"MEAN_MOTION_DDOT":0},{"OBJECT_NAME":"STARLINK-36323","OBJECT_ID":"2026-054AD","EPOCH":"2026-03-26T20:00:03.000384","MEAN_MOTION":15.82884088,"ECCENTRICITY":0.0001316,"INCLINATION":53.1591,"RA_OF_ASC_NODE":226.5418,"ARG_OF_PERICENTER":48.7811,"MEAN_ANOMALY":106.2465,"EPHEMERIS_TYPE":0,"CLASSIFICATION_TYPE":"U","NORAD_CAT_ID":68259,"ELEMENT_SET_NO":999,"REV_AT_EPOCH":270,"BSTAR":-0.010152,"MEAN_MOTION_DOT":-0.01920695,"MEAN_MOTION_DDOT":0},{"OBJECT_NAME":"STARLINK-37056","OBJECT_ID":"2026-054AE","EPOCH":"2026-03-26T20:00:03.000384","MEAN_MOTION":15.8353852,"ECCENTRICITY":0.0001352,"INCLINATION":53.1592,"RA_OF_ASC_NODE":226.518,"ARG_OF_PERICENTER":64.689,"MEAN_ANOMALY":101.8786,"EPHEMERIS_TYPE":0,"CLASSIFICATION_TYPE":"U","NORAD_CAT_ID":68260,"ELEMENT_SET_NO":999,"REV_AT_EPOCH":267,"BSTAR":-0.010004,"MEAN_MOTION_DOT":-0.01948637,"MEAN_MOTION_DDOT":0},{"OBJECT_NAME":"STARLINK-37162","OBJECT_ID":"2026-055A","EPOCH":"2026-03-26T20:00:03.000384","MEAN_MOTION":15.99007617,"ECCENTRICITY":6.28e-5,"INCLINATION":53.1591,"RA_OF_ASC_NODE":251.9533,"ARG_OF_PERICENTER":74.1979,"MEAN_ANOMALY":341.4724,"EPHEMERIS_TYPE":0,"CLASSIFICATION_TYPE":"U","NORAD_CAT_ID":68262,"ELEMENT_SET_NO":999,"REV_AT_EPOCH":239,"BSTAR":-0.0018576,"MEAN_MOTION_DOT":-0.00924066,"MEAN_MOTION_DDOT":0.00028495},{"OBJECT_NAME":"STARLINK-37156","OBJECT_ID":"2026-055B","EPOCH":"2026-03-26T20:00:03.000384","MEAN_MOTION":15.99098705,"ECCENTRICITY":7.12e-5,"INCLINATION":53.1591,"RA_OF_ASC_NODE":251.95,"ARG_OF_PERICENTER":62.7163,"MEAN_ANOMALY":354.7801,"EPHEMERIS_TYPE":0,"CLASSIFICATION_TYPE":"U","NORAD_CAT_ID":68263,"ELEMENT_SET_NO":999,"REV_AT_EPOCH":239,"BSTAR":-0.001853,"MEAN_MOTION_DOT":-0.00926525,"MEAN_MOTION_DDOT":0.00028659},{"OBJECT_NAME":"STARLINK-37163","OBJECT_ID":"2026-055C","EPOCH":"2026-03-26T20:00:03.000384","MEAN_MOTION":15.99348031,"ECCENTRICITY":6.85e-5,"INCLINATION":53.1589,"RA_OF_ASC_NODE":251.9399,"ARG_OF_PERICENTER":55.5997,"MEAN_ANOMALY":6.4492,"EPHEMERIS_TYPE":0,"CLASSIFICATION_TYPE":"U","NORAD_CAT_ID":68264,"ELEMENT_SET_NO":999,"REV_AT_EPOCH":239,"BSTAR":-0.0018313,"MEAN_MOTION_DOT":-0.00928686,"MEAN_MOTION_DDOT":0.00028857},{"OBJECT_NAME":"STARLINK-37133","OBJECT_ID":"2026-055D","EPOCH":"2026-03-26T20:00:03.000384","MEAN_MOTION":15.99228584,"ECCENTRICITY":5.7e-5,"INCLINATION":53.159,"RA_OF_ASC_NODE":251.9448,"ARG_OF_PERICENTER":64.0069,"MEAN_ANOMALY":355.8238,"EPHEMERIS_TYPE":0,"CLASSIFICATION_TYPE":"U","NORAD_CAT_ID":68265,"ELEMENT_SET_NO":999,"REV_AT_EPOCH":239,"BSTAR":-0.0018485,"MEAN_MOTION_DOT":-0.00931049,"MEAN_MOTION_DDOT":0.00028953},{"OBJECT_NAME":"STARLINK-37042","OBJECT_ID":"2026-055E","EPOCH":"2026-03-26T20:00:03.000384","MEAN_MOTION":15.99503593,"ECCENTRICITY":6.72e-5,"INCLINATION":53.159,"RA_OF_ASC_NODE":251.9342,"ARG_OF_PERICENTER":54.4356,"MEAN_ANOMALY":10.5282,"EPHEMERIS_TYPE":0,"CLASSIFICATION_TYPE":"U","NORAD_CAT_ID":68266,"ELEMENT_SET_NO":999,"REV_AT_EPOCH":239,"BSTAR":-0.0018021,"MEAN_MOTION_DOT":-0.00922051,"MEAN_MOTION_DDOT":0.00028534},{"OBJECT_NAME":"STARLINK-37103","OBJECT_ID":"2026-055F","EPOCH":"2026-03-26T20:00:03.000384","MEAN_MOTION":15.99640793,"ECCENTRICITY":7.08e-5,"INCLINATION":53.1591,"RA_OF_ASC_NODE":251.9287,"ARG_OF_PERICENTER":58.6028,"MEAN_ANOMALY":8.8548,"EPHEMERIS_TYPE":0,"CLASSIFICATION_TYPE":"U","NORAD_CAT_ID":68267,"ELEMENT_SET_NO":999,"REV_AT_EPOCH":239,"BSTAR":-0.0017954,"MEAN_MOTION_DOT":-0.00925816,"MEAN_MOTION_DDOT":0.00028787},{"OBJECT_NAME":"STARLINK-36999","OBJECT_ID":"2026-055G","EPOCH":"2026-03-26T20:00:03.000384","MEAN_MOTION":15.99767352,"ECCENTRICITY":6.95e-5,"INCLINATION":53.1591,"RA_OF_ASC_NODE":251.9243,"ARG_OF_PERICENTER":58.4479,"MEAN_ANOMALY":11.2441,"EPHEMERIS_TYPE":0,"CLASSIFICATION_TYPE":"U","NORAD_CAT_ID":68268,"ELEMENT_SET_NO":999,"REV_AT_EPOCH":239,"BSTAR":-0.0017901,"MEAN_MOTION_DOT":-0.00929695,"MEAN_MOTION_DDOT":0.00029044},{"OBJECT_NAME":"STARLINK-36962","OBJECT_ID":"2026-055H","EPOCH":"2026-03-26T20:00:03.000384","MEAN_MOTION":15.99899588,"ECCENTRICITY":7.05e-5,"INCLINATION":53.1591,"RA_OF_ASC_NODE":251.9193,"ARG_OF_PERICENTER":64.0305,"MEAN_ANOMALY":8.0351,"EPHEMERIS_TYPE":0,"CLASSIFICATION_TYPE":"U","NORAD_CAT_ID":68269,"ELEMENT_SET_NO":999,"REV_AT_EPOCH":239,"BSTAR":-0.001772,"MEAN_MOTION_DOT":-0.00927321,"MEAN_MOTION_DDOT":0.00028952},{"OBJECT_NAME":"STARLINK-37028","OBJECT_ID":"2026-055J","EPOCH":"2026-03-26T20:00:03.000384","MEAN_MOTION":16.00248744,"ECCENTRICITY":6.41e-5,"INCLINATION":53.159,"RA_OF_ASC_NODE":251.9026,"ARG_OF_PERICENTER":58.3564,"MEAN_ANOMALY":21.5381,"EPHEMERIS_TYPE":0,"CLASSIFICATION_TYPE":"U","NORAD_CAT_ID":68270,"ELEMENT_SET_NO":999,"REV_AT_EPOCH":239,"BSTAR":-0.0017604,"MEAN_MOTION_DOT":-0.00939722,"MEAN_MOTION_DDOT":0.00029766},{"OBJECT_NAME":"STARLINK-37029","OBJECT_ID":"2026-055K","EPOCH":"2026-03-26T20:00:03.000384","MEAN_MOTION":16.0011296,"ECCENTRICITY":6.8e-5,"INCLINATION":53.159,"RA_OF_ASC_NODE":251.908,"ARG_OF_PERICENTER":68.8061,"MEAN_ANOMALY":8.6475,"EPHEMERIS_TYPE":0,"CLASSIFICATION_TYPE":"U","NORAD_CAT_ID":68271,"ELEMENT_SET_NO":999,"REV_AT_EPOCH":239,"BSTAR":-0.0017802,"MEAN_MOTION_DOT":-0.00942886,"MEAN_MOTION_DDOT":0.00029904},{"OBJECT_NAME":"STARLINK-36974","OBJECT_ID":"2026-055L","EPOCH":"2026-03-26T20:00:03.000384","MEAN_MOTION":16.00423781,"ECCENTRICITY":5.66e-5,"INCLINATION":53.159,"RA_OF_ASC_NODE":251.8965,"ARG_OF_PERICENTER":65.5445,"MEAN_ANOMALY":17.4098,"EPHEMERIS_TYPE":0,"CLASSIFICATION_TYPE":"U","NORAD_CAT_ID":68272,"ELEMENT_SET_NO":999,"REV_AT_EPOCH":239,"BSTAR":-0.0017468,"MEAN_MOTION_DOT":-0.00941878,"MEAN_MOTION_DDOT":0.00029947}]
